{
    "links": {
        "self": "http://www.neowsapp.com/rest/v1/neo/3395313?api_key=iIulBulltgU6a56xZRHN4H3l9WmuAYTsLGpBGhQ2"
    },
    "id": "3395313",
    "neo_reference_id": "3395313",
    "name": "(2007 VP243)",
    "designation": "2007 VP243",
    "nasa_jpl_url": "http://ssd.jpl.nasa.gov/sbdb.cgi?sstr=3395313",
    "absolute_magnitude_h": 21.4,
    "estimated_diameter": {
        "kilometers": {
            "estimated_diameter_min": 0.1394938229,
            "estimated_diameter_max": 0.3119176705
        },
        "meters": {
            "estimated_diameter_min": 139.4938229344,
            "estimated_diameter_max": 311.9176705226
        },
        "miles": {
            "estimated_diameter_min": 0.0866774163,
            "estimated_diameter_max": 0.1938165949
        },
        "feet": {
            "estimated_diameter_min": 457.6569140361,
            "estimated_diameter_max": 1023.3519701574
        }
    },
    "is_potentially_hazardous_asteroid": true,
    "close_approach_data": [
        {
            "close_approach_date": "2007-08-29",
            "close_approach_date_full": "2007-Aug-29 05:02",
            "epoch_date_close_approach": 1188363720000,
            "relative_velocity": {
                "kilometers_per_second": "9.5949938721",
                "kilometers_per_hour": "34541.9779396833",
                "miles_per_hour": "21463.0417925771"
            },
            "miss_distance": {
                "astronomical": "0.0937932578",
                "lunar": "36.4855772842",
                "kilometers": "14031271.587240886",
                "miles": "8718627.8761647868"
            },
            "orbiting_body": "Earth"
        }
    ],
    "orbital_data": {
        "orbit_id": "12",
        "orbit_determination_date": "2017-04-06 09:05:06",
        "first_observation_date": "2007-11-15",
        "last_observation_date": "2007-12-05",
        "data_arc_in_days": 20,
        "observations_used": 31,
        "orbit_uncertainty": "7",
        "minimum_orbit_intersection": ".0236932",
        "jupiter_tisserand_invariant": "3.370",
        "epoch_osculation": "2459000.5",
        "eccentricity": ".582128433983111",
        "semi_major_axis": "2.258466250605294",
        "inclination": "5.645723468079458",
        "ascending_node_longitude": "13.94263782863772",
        "orbital_period": "1239.70637490083",
        "perihelion_distance": ".9437488289367257",
        "perihelion_argument": "312.0955823578142",
        "aphelion_distance": "3.573183672273862",
        "perihelion_time": "2459289.412509452539",
        "mean_anomaly": "276.1023081685498",
        "mean_motion": ".2903913436992675",
        "equinox": "J2000",
        "orbit_class": {
            "orbit_class_type": "APO",
            "orbit_class_description": "Near-Earth asteroid orbits which cross the Earth’s orbit similar to that of 1862 Apollo",
            "orbit_class_range": "a (semi-major axis) > 1.0 AU; q (perihelion) < 1.017 AU"
        }
    },
    "is_sentry_object": false
}